GPS BIIF-7  (PRN 09)    
1 40105U 14045A   26061.85151001  .00000019  00000+0  00000+0 0  9998
2 40105  55.2800  92.7002 0031535 120.5034 239.8806  2.00551356 83941
GPS BIIF-8  (PRN 03)    
1 40294U 14068A   26061.72976413 -.00000072  00000+0  00000+0 0  9990
2 40294  56.9183  35.0563 0062729  68.0429 292.6114  2.00569705 83077
GPS BIIF-9  (PRN 26)    
1 40534U 15013A   26061.36244132 -.00000015  00000+0  00000+0 0  9991
2 40534  53.1867 208.5939 0108729  39.7757 320.9603  2.00557677 79681
GPS BIIF-10 (PRN 08)    
1 40730U 15033A   26061.52302351  .00000001  00000+0  00000+0 0  9991
2 40730  54.0659 271.4826 0114453  28.9403 331.7281  2.00561632 77856
GPS BIIF-11 (PRN 10)    
1 41019U 15062A   26061.58186007 -.00000071  00000+0  00000+0 0  9996
2 41019  56.8916  34.9181 0111458 231.4820 127.5052  2.00567039 75699
GPS BIIF-12 (PRN 32)    
1 41328U 16007A   26062.16575164  .00000018  00000+0  00000+0 0  9990
2 41328  55.4547  93.6619 0095403 245.9731 113.0958  2.00556827 73716
GPS BIII-1  (PRN 04)    
1 43873U 18109A   26061.55588921  .00000022  00000+0  00000+0 0  9994
2 43873  55.6138  96.3922 0037879 198.2365 334.0151  2.00556616 52931
GPS BIII-2  (PRN 18)    
1 44506U 19056A   26062.19130604 -.00000098  00000+0  00000+0 0  9996
2 44506  55.6853 335.3576 0058023 198.1770 333.1087  2.00568213 47942
GPS BIII-3  (PRN 23)    
1 45854U 20041A   26061.22387252 -.00000073  00000+0  00000+0 0  9998
2 45854  56.6045  33.0935 0061351 205.2559 289.6941  2.00560558 41893
GPS BIII-4  (PRN 14)    
1 46826U 20078A   26061.80797074 -.00000010  00000+0  00000+0 0  9990
2 46826  54.0020 215.0904 0068149 204.2599 325.6195  2.00565488 39370
GPS BIII-5  (PRN 11)    
1 48859U 21054A   26061.82888220 -.00000100  00000+0  00000+0 0  9999
2 48859  55.2217 336.7372 0023880 232.1010 137.0822  2.00575571 34629
GPS BIII-6  (PRN 28)    
1 55268U 23009A   26059.76489831 -.00000028  00000+0  00000+0 0  9997
2 55268  55.1093 152.7809 0004758 333.1698  25.1517  2.00549258 23067
GPS BIII-7  (PRN 01)    
1 62339U 24242A   26059.41642148 -.00000100  00000+0  00000+0 0  9999
2 62339  54.8934 338.5934 0015681 355.9356 192.4850  2.00569355  9070
GPS BIII-8  (PRN 21)    
1 64202U 25116A   26060.64696265 -.00000067  00000+0  00000+0 0  9999
2 64202  55.1599  35.4578 0008439 324.9221 217.8620  2.00553196  5719
GPS BIII-9  (PRN 20)    
1 67588U 26017A   26062.00114763  .00000017  00000+0  00000+0 0  9994
2 67588  55.0177  93.0152 0001470  19.4076 340.6699  2.00560913429480
